CCSDS_OMM_VERS = 2.0
CREATION_DATE  = 
ORIGINATOR     = 

OBJECT_NAME    = ALOS (DAICHI)
OBJECT_ID      = 2006-002A
CENTER_NAME    = EARTH
REF_FRAME      = TEME
TIME_SYSTEM    = UTC
MEAN_ELEMENT_THEORY = SGP/SGP4

EPOCH          = 2025-12-17T17:37:14.152512
MEAN_MOTION    = 14.69501788
ECCENTRICITY   = .00013612
INCLINATION    = 98.1098
RA_OF_ASC_NODE = 303.1864
ARG_OF_PERICENTER = 113.5739
MEAN_ANOMALY   = 246.5610

EPHEMERIS_TYPE = 0
CLASSIFICATION_TYPE = U
NORAD_CAT_ID   = 28931
ELEMENT_SET_NO = 999
REV_AT_EPOCH   = 6144
BSTAR          = .19545051E-3
MEAN_MOTION_DOT = .111E-4
MEAN_MOTION_DDOT = 0

CCSDS_OMM_VERS = 2.0
CREATION_DATE  = 
ORIGINATOR     = 

OBJECT_NAME    = H-2A R/B
OBJECT_ID      = 2006-002B
CENTER_NAME    = EARTH
REF_FRAME      = TEME
TIME_SYSTEM    = UTC
MEAN_ELEMENT_THEORY = SGP/SGP4

EPOCH          = 2026-01-04T21:43:08.550912
MEAN_MOTION    = 15.15119494
ECCENTRICITY   = .00547789
INCLINATION    = 98.2332
RA_OF_ASC_NODE = 146.5564
ARG_OF_PERICENTER = 98.2681
MEAN_ANOMALY   = 262.4766

EPHEMERIS_TYPE = 0
CLASSIFICATION_TYPE = U
NORAD_CAT_ID   = 28932
ELEMENT_SET_NO = 999
REV_AT_EPOCH   = 8477
BSTAR          = .5415006E-3
MEAN_MOTION_DOT = .10462E-3
MEAN_MOTION_DDOT = 0

CCSDS_OMM_VERS = 2.0
CREATION_DATE  = 
ORIGINATOR     = 

OBJECT_NAME    = RESURS-DK 1
OBJECT_ID      = 2006-021A
CENTER_NAME    = EARTH
REF_FRAME      = TEME
TIME_SYSTEM    = UTC
MEAN_ELEMENT_THEORY = SGP/SGP4

EPOCH          = 2026-01-04T12:26:45.705984
MEAN_MOTION    = 15.12320500
ECCENTRICITY   = .00069143
INCLINATION    = 69.9342
RA_OF_ASC_NODE = 42.9627
ARG_OF_PERICENTER = 240.0277
MEAN_ANOMALY   = 120.0203

EPHEMERIS_TYPE = 0
CLASSIFICATION_TYPE = U
NORAD_CAT_ID   = 29228
ELEMENT_SET_NO = 999
REV_AT_EPOCH   = 7782
BSTAR          = .23239096E-3
MEAN_MOTION_DOT = .3931E-4
MEAN_MOTION_DDOT = 0

CCSDS_OMM_VERS = 2.0
CREATION_DATE  = 
ORIGINATOR     = 

OBJECT_NAME    = CZ-4B R/B
OBJECT_ID      = 2006-046C
CENTER_NAME    = EARTH
REF_FRAME      = TEME
TIME_SYSTEM    = UTC
MEAN_ELEMENT_THEORY = SGP/SGP4

EPOCH          = 2026-01-04T20:54:13.059936
MEAN_MOTION    = 15.16153797
ECCENTRICITY   = .00349713
INCLINATION    = 97.5696
RA_OF_ASC_NODE = 49.9464
ARG_OF_PERICENTER = 127.2817
MEAN_ANOMALY   = 233.1613

EPHEMERIS_TYPE = 0
CLASSIFICATION_TYPE = U
NORAD_CAT_ID   = 29507
ELEMENT_SET_NO = 999
REV_AT_EPOCH   = 5037
BSTAR          = .34124613E-3
MEAN_MOTION_DOT = .6617E-4
MEAN_MOTION_DDOT = 0

CCSDS_OMM_VERS = 2.0
CREATION_DATE  = 
ORIGINATOR     = 

OBJECT_NAME    = CZ-2C R/B
OBJECT_ID      = 2007-010B
CENTER_NAME    = EARTH
REF_FRAME      = TEME
TIME_SYSTEM    = UTC
MEAN_ELEMENT_THEORY = SGP/SGP4

EPOCH          = 2026-01-04T21:32:26.384640
MEAN_MOTION    = 14.20221054
ECCENTRICITY   = .00599448
INCLINATION    = 98.3974
RA_OF_ASC_NODE = 121.3832
ARG_OF_PERICENTER = 119.3022
MEAN_ANOMALY   = 241.4164

EPHEMERIS_TYPE = 0
CLASSIFICATION_TYPE = U
NORAD_CAT_ID   = 31114
ELEMENT_SET_NO = 999
REV_AT_EPOCH   = 97066
BSTAR          = .11730986E-3
MEAN_MOTION_DOT = .215E-5
MEAN_MOTION_DDOT = 0

CCSDS_OMM_VERS = 2.0
CREATION_DATE  = 
ORIGINATOR     = 

OBJECT_NAME    = COSMO-SKYMED 1
OBJECT_ID      = 2007-023A
CENTER_NAME    = EARTH
REF_FRAME      = TEME
TIME_SYSTEM    = UTC
MEAN_ELEMENT_THEORY = SGP/SGP4

EPOCH          = 2026-01-04T23:59:50.858880
MEAN_MOTION    = 14.95977923
ECCENTRICITY   = .00014823
INCLINATION    = 97.8831
RA_OF_ASC_NODE = 195.5545
ARG_OF_PERICENTER = 87.2538
MEAN_ANOMALY   = 272.8852

EPHEMERIS_TYPE = 0
CLASSIFICATION_TYPE = U
NORAD_CAT_ID   = 31598
ELEMENT_SET_NO = 999
REV_AT_EPOCH   = 538
BSTAR          = .46674716E-3
MEAN_MOTION_DOT = .5174E-4
MEAN_MOTION_DDOT = 0

CCSDS_OMM_VERS = 2.0
CREATION_DATE  = 
ORIGINATOR     = 

OBJECT_NAME    = COSMOS 2428
OBJECT_ID      = 2007-029A
CENTER_NAME    = EARTH
REF_FRAME      = TEME
TIME_SYSTEM    = UTC
MEAN_ELEMENT_THEORY = SGP/SGP4

EPOCH          = 2026-01-04T23:02:21.883200
MEAN_MOTION    = 14.12902387
ECCENTRICITY   = .00050146
INCLINATION    = 70.9382
RA_OF_ASC_NODE = 337.1262
ARG_OF_PERICENTER = 351.2256
MEAN_ANOMALY   = 8.8777

EPHEMERIS_TYPE = 0
CLASSIFICATION_TYPE = U
NORAD_CAT_ID   = 31792
ELEMENT_SET_NO = 999
REV_AT_EPOCH   = 95509
BSTAR          = .19252398E-3
MEAN_MOTION_DOT = .311E-5
MEAN_MOTION_DDOT = 0

CCSDS_OMM_VERS = 2.0
CREATION_DATE  = 
ORIGINATOR     = 

OBJECT_NAME    = SL-16 R/B
OBJECT_ID      = 2007-029B
CENTER_NAME    = EARTH
REF_FRAME      = TEME
TIME_SYSTEM    = UTC
MEAN_ELEMENT_THEORY = SGP/SGP4

EPOCH          = 2026-01-04T22:24:11.306880
MEAN_MOTION    = 14.14825577
ECCENTRICITY   = .00021504
INCLINATION    = 70.9774
RA_OF_ASC_NODE = 306.4025
ARG_OF_PERICENTER = 271.5237
MEAN_ANOMALY   = 152.7611

EPHEMERIS_TYPE = 0
CLASSIFICATION_TYPE = U
NORAD_CAT_ID   = 31793
ELEMENT_SET_NO = 999
REV_AT_EPOCH   = 95635
BSTAR          = .60921118E-4
MEAN_MOTION_DOT = .7E-6
MEAN_MOTION_DDOT = 0

CCSDS_OMM_VERS = 2.0
CREATION_DATE  = 
ORIGINATOR     = 

OBJECT_NAME    = KORONAS-FOTON
OBJECT_ID      = 2009-003A
CENTER_NAME    = EARTH
REF_FRAME      = TEME
TIME_SYSTEM    = UTC
MEAN_ELEMENT_THEORY = SGP/SGP4

EPOCH          = 2026-01-04T22:18:50.992704
MEAN_MOTION    = 15.41706241
ECCENTRICITY   = .00123711
INCLINATION    = 82.4317
RA_OF_ASC_NODE = 342.0660
ARG_OF_PERICENTER = 36.4583
MEAN_ANOMALY   = 323.7503

EPHEMERIS_TYPE = 0
CLASSIFICATION_TYPE = U
NORAD_CAT_ID   = 33504
ELEMENT_SET_NO = 999
REV_AT_EPOCH   = 93591
BSTAR          = .26656176E-3
MEAN_MOTION_DOT = .11318E-3
MEAN_MOTION_DDOT = 0

CCSDS_OMM_VERS = 2.0
CREATION_DATE  = 
ORIGINATOR     = 

OBJECT_NAME    = CZ-2C R/B
OBJECT_ID      = 2011-030B
CENTER_NAME    = EARTH
REF_FRAME      = TEME
TIME_SYSTEM    = UTC
MEAN_ELEMENT_THEORY = SGP/SGP4

EPOCH          = 2026-01-04T21:43:34.373280
MEAN_MOTION    = 14.80985349
ECCENTRICITY   = .00522461
INCLINATION    = 97.8445
RA_OF_ASC_NODE = 323.5037
ARG_OF_PERICENTER = 196.4211
MEAN_ANOMALY   = 231.5232

EPHEMERIS_TYPE = 0
CLASSIFICATION_TYPE = U
NORAD_CAT_ID   = 37731
ELEMENT_SET_NO = 999
REV_AT_EPOCH   = 78065
BSTAR          = .23348599E-3
MEAN_MOTION_DOT = .1796E-4
MEAN_MOTION_DDOT = 0

CCSDS_OMM_VERS = 2.0
CREATION_DATE  = 
ORIGINATOR     = 

OBJECT_NAME    = H-2A R/B
OBJECT_ID      = 2012-025E
CENTER_NAME    = EARTH
REF_FRAME      = TEME
TIME_SYSTEM    = UTC
MEAN_ELEMENT_THEORY = SGP/SGP4

EPOCH          = 2026-01-04T20:55:41.842848
MEAN_MOTION    = 14.94620205
ECCENTRICITY   = .00452451
INCLINATION    = 98.4632
RA_OF_ASC_NODE = 326.8917
ARG_OF_PERICENTER = 159.9690
MEAN_ANOMALY   = 200.3317

EPHEMERIS_TYPE = 0
CLASSIFICATION_TYPE = U
NORAD_CAT_ID   = 38341
ELEMENT_SET_NO = 999
REV_AT_EPOCH   = 73868
BSTAR          = .33860116E-3
MEAN_MOTION_DOT = .3673E-4
MEAN_MOTION_DDOT = 0

CCSDS_OMM_VERS = 2.0
CREATION_DATE  = 
ORIGINATOR     = 

OBJECT_NAME    = SHIJIAN-16 (SJ-16)
OBJECT_ID      = 2013-057A
CENTER_NAME    = EARTH
REF_FRAME      = TEME
TIME_SYSTEM    = UTC
MEAN_ELEMENT_THEORY = SGP/SGP4

EPOCH          = 2026-01-04T22:29:00.383136
MEAN_MOTION    = 14.92096512
ECCENTRICITY   = .00179806
INCLINATION    = 74.9745
RA_OF_ASC_NODE = 305.7585
ARG_OF_PERICENTER = 266.5635
MEAN_ANOMALY   = 93.3496

EPHEMERIS_TYPE = 0
CLASSIFICATION_TYPE = U
NORAD_CAT_ID   = 39358
ELEMENT_SET_NO = 999
REV_AT_EPOCH   = 66199
BSTAR          = .24930665E-3
MEAN_MOTION_DOT = .2512E-4
MEAN_MOTION_DDOT = 0

