ALOS (DAICHI)           
1 28931U 06002A   25351.73419158  .00001110  00000+0  19545-3 0  9994
2 28931  98.1098 303.1864 0001361 113.5739 246.5610 14.69501788 61443
H-2A R/B                
1 28932U 06002B   26004.90496008  .00010462  00000+0  54150-3 0  9990
2 28932  98.2332 146.5564 0054778  98.2681 262.4766 15.15119494 84778
RESURS-DK 1             
1 29228U 06021A   26004.51858456  .00003931  00000+0  23239-3 0  9993
2 29228  69.9342  42.9627 0006914 240.0277 120.0203 15.12320500 77821
CZ-4B R/B               
1 29507U 06046C   26004.87098449  .00006617  00000+0  34125-3 0  9997
2 29507  97.5696  49.9464 0034971 127.2817 233.1613 15.16153797 50374
CZ-2C R/B               
1 31114U 07010B   26004.89752760  .00000215  00000+0  11731-3 0  9997
2 31114  98.3974 121.3832 0059944 119.3022 241.4164 14.20221054970662
COSMO-SKYMED 1          
1 31598U 07023A   26004.99989420  .00005174  00000+0  46675-3 0  9997
2 31598  97.8831 195.5545 0001482  87.2538 272.8852 14.95977923  5382
COSMOS 2428             
1 31792U 07029A   26004.95997550  .00000311  00000+0  19252-3 0  9997
2 31792  70.9382 337.1262 0005014 351.2256   8.8777 14.12902387955093
SL-16 R/B               
1 31793U 07029B   26004.93346420  .00000070  00000+0  60921-4 0  9992
2 31793  70.9774 306.4025 0002150 271.5237 152.7611 14.14825577956359
KORONAS-FOTON           
1 33504U 09003A   26004.92975686  .00011318  00000+0  26656-3 0  9992
2 33504  82.4317 342.0660 0012371  36.4583 323.7503 15.41706241935917
CZ-2C R/B               
1 37731U 11030B   26004.90525895  .00001796  00000+0  23349-3 0  9997
2 37731  97.8445 323.5037 0052246 196.4211 231.5232 14.80985349780651
H-2A R/B                
1 38341U 12025E   26004.87201207  .00003673  00000+0  33860-3 0  9999
2 38341  98.4632 326.8917 0045245 159.9690 200.3317 14.94620205738689
SHIJIAN-16 (SJ-16)      
1 39358U 13057A   26004.93680999  .00002512  00000+0  24931-3 0  9990
2 39358  74.9745 305.7585 0017980 266.5635  93.3496 14.92096512661991
